{"type": "FeatureCollection", "features": [{"type": "Feature", "geometry": {"type": "Polygon", "coordinates": [[[31.287891, -22.402051], [31.073438, -22.307813], [30.916113, -22.290723], [30.460156, -22.329004], [30.19043, -22.291113], [29.902344, -22.18418], [29.663086, -22.146289], [29.364844, -22.193945], [29.237207, -22.079492], [29.106836, -22.065723], [29.042383, -22.018359], [29.01582, -21.939941], [29.025586, -21.796875], [28.532031, -21.65127], [28.014063, -21.554199], [27.844141, -21.261523], [27.669434, -21.064258], [27.699609, -20.530664], [27.624609, -20.483594], [27.280762, -20.478711], [27.256738, -20.232031], [27.178223, -20.100977], [26.678223, -19.892773], [26.168066, -19.538281], [25.950684, -19.081738], [25.939355, -18.938672], [25.811914, -18.79707], [25.76123, -18.649219], [25.558301, -18.441797], [25.384375, -18.141992], [25.242285, -17.969043], [25.224023, -17.915234], [25.258789, -17.793555], [25.451758, -17.845117], [25.639648, -17.824121], [25.741602, -17.858203], [25.863281, -17.951953], [25.995898, -17.969824], [26.139551, -17.911719], [26.333398, -17.929297], [26.577539, -18.022559], [26.779883, -18.041504], [27.020801, -17.958398], [27.437891, -17.511914], [27.756543, -17.060352], [27.932227, -16.896191], [28.399805, -16.662793], [28.760547, -16.532129], [28.832715, -16.424121], [28.875586, -16.036133], [28.913086, -15.987793], [29.287891, -15.776465], [29.72959, -15.644629], [30.396094, -15.643066], [30.409375, -15.978223], [30.437793, -15.995313], [31.23623, -16.023633], [31.489844, -16.179688], [31.687598, -16.21416], [31.939844, -16.428809], [32.243262, -16.44873], [32.63584, -16.589453], [32.741797, -16.677637], [32.948047, -16.712305], [32.87627, -16.883594], [32.884375, -17.037793], [32.969336, -17.251563], [32.955566, -18.08291], [32.993066, -18.35957], [32.88457, -18.728516], [32.721973, -18.828418], [32.699707, -18.940918], [32.716504, -19.001855], [32.826172, -19.058789], [32.849805, -19.104395], [32.777637, -19.38877], [32.830762, -19.558203], [33.006738, -19.873828], [32.992773, -19.984863], [32.672559, -20.516113], [32.492383, -20.659766], [32.476172, -20.950098], [32.353613, -21.136523], [32.429785, -21.29707], [31.429492, -22.298828], [31.287891, -22.402051]]]}, "properties": {"iso3": "ZWE"}}, {"type": "Feature", "geometry": {"type": "Polygon", "coordinates": [[[30.396094, -15.643066], [29.72959, -15.644629], [29.487305, -15.696777], [28.913086, -15.987793], [28.875586, -16.036133], [28.832715, -16.424121], [28.760547, -16.532129], [28.399805, -16.662793], [27.932227, -16.896191], [27.756543, -17.060352], [27.437891, -17.511914], [27.020801, -17.958398], [26.779883, -18.041504], [26.577539, -18.022559], [26.333398, -17.929297], [26.139551, -17.911719], [25.995898, -17.969824], [25.863281, -17.951953], [25.741602, -17.858203], [25.639648, -17.824121], [25.451758, -17.845117], [25.258789, -17.793555], [25.001758, -17.568555], [24.73291, -17.517773], [24.274902, -17.481055], [23.380664, -17.640625], [22.459473, -16.815137], [22.150684, -16.597168], [22.040234, -16.262793], [21.979785, -15.955566], [21.978906, -13.000977], [23.962988, -12.988477], [23.882422, -12.799023], [23.991309, -12.422168], [23.958887, -12.117773], [23.970996, -11.63584], [24.04668, -11.405371], [23.966504, -10.871777], [24.078418, -10.891504], [24.136523, -11.025977], [24.319922, -11.071777], [24.365723, -11.129883], [24.396289, -11.255176], [24.335156, -11.371289], [24.37793, -11.41709], [24.518555, -11.438477], [24.668262, -11.35293], [25.28877, -11.212402], [25.319336, -11.236914], [25.282617, -11.40498], [25.349414, -11.623047], [25.511914, -11.753418], [25.618848, -11.744141], [26.025977, -11.890137], [26.596387, -11.97207], [26.824023, -11.965234], [26.949609, -11.898828], [27.046094, -11.615918], [27.15918, -11.579199], [27.196387, -11.605078], [27.238086, -11.783496], [27.423633, -11.944531], [27.533398, -12.195312], [27.573828, -12.227051], [27.644336, -12.266797], [27.857422, -12.284863], [28.412891, -12.518066], [28.550879, -12.836133], [28.672949, -12.861328], [28.730078, -12.925488], [28.92168, -13.214648], [28.942285, -13.307129], [29.014258, -13.368848], [29.201855, -13.39834], [29.554199, -13.248926], [29.630273, -13.298535], [29.651758, -13.414355], [29.722656, -13.453809], [29.775195, -13.438086], [29.796484, -13.369727], [29.795117, -12.155469], [29.508203, -12.228223], [29.485547, -12.418457], [29.427539, -12.43125], [29.064355, -12.348828], [28.85, -12.120508], [28.48252, -11.812109], [28.383398, -11.566699], [28.357227, -11.483008], [28.544238, -10.802344], [28.638867, -10.669238], [28.645508, -10.550195], [28.607422, -10.397363], [28.630078, -9.83125], [28.604199, -9.678809], [28.400195, -9.275], [28.400684, -9.224805], [28.68125, -9.014648], [28.869531, -8.78584], [28.934473, -8.590234], [28.898145, -8.485449], [30.751172, -8.193652], [30.891992, -8.47373], [31.033398, -8.597656], [31.350586, -8.607031], [31.449219, -8.653906], [31.534863, -8.713281], [31.55625, -8.805469], [31.673633, -8.908789], [31.886133, -8.921973], [31.918652, -8.942188], [31.942578, -9.054004], [32.433203, -9.156348], [32.487109, -9.212695], [32.919922, -9.407422], [32.995996, -9.622852], [33.072461, -9.638184], [33.104492, -9.602637], [33.195703, -9.626172], [33.25, -9.75957], [33.350977, -9.862207], [33.311523, -10.037988], [33.528906, -10.234668], [33.553711, -10.391309], [33.661523, -10.553125], [33.659082, -10.590527], [33.464746, -10.783105], [33.344922, -10.812695], [33.261328, -10.893359], [33.379785, -11.15791], [33.268359, -11.403906], [33.232715, -11.417676], [33.226367, -11.534863], [33.288281, -11.611133], [33.303906, -11.69082], [33.300977, -11.888184], [33.252344, -12.112598], [33.340137, -12.308301], [33.512305, -12.347754], [33.397949, -12.489844], [33.021582, -12.630469], [32.945605, -12.804395], [33.0, -12.899609], [32.967578, -13.225], [32.851855, -13.457031], [32.67041, -13.59043], [32.797461, -13.688477], [32.765137, -13.761035], [32.867188, -13.817383], [32.99209, -14.022168], [33.148047, -13.940918], [33.201758, -14.013379], [31.537891, -14.577148], [30.67334, -14.819141], [30.231836, -14.990332], [30.252148, -15.183203], [30.350586, -15.349707], [30.396094, -15.643066]]]}, "properties": {"iso3": "ZMB"}}, {"type": "Feature", "geometry": {"type": "Polygon", "coordinates": [[[33.903223, -1.002051], [30.80918, -0.994922], [30.59873, -1.069727], [30.360254, -1.074609], [30.101562, -1.368652], [29.930078, -1.469922], [29.881641, -1.451758], [29.825391, -1.335547], [29.576953, -1.387891], [29.561914, -0.977344], [29.647852, -0.535254], [29.633203, -0.441699], [29.717676, 0.09834], [29.777832, 0.166357], [29.934473, 0.499023], [29.942871, 0.819238], [30.18291, 0.973486], [30.240137, 1.102783], [30.321094, 1.185303], [30.478125, 1.239062], [30.942578, 1.682812], [31.252734, 2.04458], [31.274023, 2.146289], [31.176367, 2.270068], [31.082129, 2.288086], [30.961914, 2.403271], [30.830078, 2.400439], [30.728613, 2.455371], [30.769531, 2.677979], [30.850781, 2.893652], [30.754004, 3.041797], [30.827832, 3.282617], [30.906445, 3.408936], [30.895313, 3.463672], [30.838574, 3.490723], [30.929395, 3.634082], [31.048047, 3.725], [31.152344, 3.785596], [31.221973, 3.785937], [31.547168, 3.677588], [31.798047, 3.802637], [31.941797, 3.607568], [32.135938, 3.519727], [32.19668, 3.607812], [32.335742, 3.706201], [32.838086, 3.798486], [32.997266, 3.880176], [33.154102, 3.774707], [33.489355, 3.755078], [33.976074, 4.220215], [34.132031, 3.88916], [34.185742, 3.869775], [34.165039, 3.812988], [34.437695, 3.650586], [34.399414, 3.412695], [34.447852, 3.163477], [34.522559, 3.119971], [34.58916, 2.924756], [34.74248, 2.818115], [34.814453, 2.619824], [34.866211, 2.589697], [34.905762, 2.479687], [34.883008, 2.41792], [34.964063, 2.062402], [34.976465, 1.719629], [34.941211, 1.599268], [34.783594, 1.381152], [34.798633, 1.244531], [34.601953, 1.156445], [34.481738, 1.042139], [34.41084, 0.867285], [34.272559, 0.686426], [34.160938, 0.605176], [34.037207, 0.294531], [33.943164, 0.173779], [33.903223, -1.002051]]]}, "properties": {"iso3": "UGA"}}, {"type": "Feature", "geometry": {"type": "MultiPolygon", "coordinates": [[[[39.496484, -6.174609], [39.573047, -6.387402], [39.563184, -6.427246], [39.480957, -6.453711], [39.423633, -6.347852], [39.382617, -6.364941], [39.312695, -6.279102], [39.243457, -6.275], [39.182324, -6.172559], [39.20625, -6.083203], [39.192383, -5.931055], [39.266992, -5.853125], [39.308984, -5.721973], [39.433301, -6.11543], [39.496484, -6.174609]]], [[[39.865039, -4.906152], [39.853027, -5.255469], [39.749316, -5.443848], [39.646777, -5.368555], [39.701074, -5.113672], [39.673438, -4.927051], [39.780762, -4.944922], [39.865039, -4.906152]]], [[[32.919922, -9.407422], [32.487109, -9.212695], [32.433203, -9.156348], [31.942578, -9.054004], [31.918652, -8.942188], [31.818066, -8.902246], [31.673633, -8.908789], [31.55625, -8.805469], [31.534863, -8.713281], [31.350586, -8.607031], [31.076367, -8.611914], [30.968359, -8.550977], [30.830664, -8.385547], [30.313184, -7.203711], [30.212695, -7.037891], [30.10625, -6.915039], [29.709668, -6.616895], [29.54082, -6.313867], [29.480078, -6.025], [29.607031, -5.722656], [29.323438, -4.898828], [29.403223, -4.449316], [29.717773, -4.455859], [29.947266, -4.307324], [30.147168, -4.085352], [30.268555, -3.850488], [30.379102, -3.730762], [30.425, -3.588867], [30.631934, -3.418652], [30.626074, -3.347363], [30.790234, -3.274609], [30.811426, -3.200586], [30.780273, -2.984863], [30.455566, -2.893164], [30.424023, -2.824023], [30.47334, -2.694336], [30.424219, -2.641602], [30.533691, -2.42627], [30.828711, -2.338477], [30.876563, -2.143359], [30.819141, -1.96748], [30.812598, -1.563086], [30.710742, -1.396777], [30.631934, -1.36748], [30.508105, -1.208203], [30.470215, -1.131152], [30.477051, -1.083008], [30.519922, -1.0625], [30.59873, -1.069727], [30.80918, -0.994922], [33.979395, -1.002051], [37.643848, -3.04541], [37.687988, -3.246191], [37.608203, -3.49707], [37.711035, -3.54082], [37.797266, -3.674414], [39.221777, -4.692383], [38.978223, -5.518555], [38.819238, -5.877637], [38.804688, -6.070117], [38.874023, -6.33125], [38.981445, -6.455078], [39.125488, -6.555957], [39.287305, -6.814941], [39.472363, -6.878613], [39.546094, -7.024023], [39.519238, -7.124121], [39.353125, -7.341406], [39.288477, -7.517871], [39.287012, -7.787695], [39.330469, -7.74668], [39.428418, -7.812793], [39.441016, -8.011523], [39.340039, -8.242871], [39.304004, -8.443848], [39.377344, -8.720801], [39.488379, -8.861816], [39.45127, -8.942969], [39.641309, -9.19248], [39.625488, -9.409473], [39.783789, -9.914551], [39.725195, -10.000488], [39.86377, -10.021973], [39.983594, -10.15957], [40.083691, -10.156641], [40.38877, -10.353516], [40.463574, -10.464355], [39.988672, -10.820801], [39.81709, -10.912402], [39.43916, -11.03457], [39.321582, -11.122559], [39.170996, -11.166895], [38.9875, -11.167285], [38.794727, -11.228906], [38.491797, -11.413281], [38.315137, -11.311133], [38.176563, -11.278711], [37.920215, -11.294727], [37.885352, -11.316699], [37.829297, -11.481934], [37.724805, -11.580664], [37.541699, -11.675098], [37.372852, -11.710449], [37.218359, -11.686523], [36.978906, -11.566992], [36.872656, -11.571289], [36.673828, -11.684277], [36.518652, -11.716211], [36.305664, -11.706348], [36.191309, -11.670703], [36.175488, -11.609277], [36.082227, -11.537305], [35.911328, -11.454688], [35.785449, -11.45293], [35.630957, -11.582031], [35.564355, -11.602344], [34.959473, -11.578125], [34.890625, -11.393555], [34.850586, -11.351953], [34.773828, -11.341699], [34.60791, -11.080469], [34.605664, -10.990234], [34.66709, -10.79248], [34.636523, -10.625586], [34.583594, -10.525098], [34.569922, -10.241113], [34.524219, -10.030176], [34.320898, -9.731543], [34.088574, -9.537793], [33.995605, -9.49541], [33.949609, -9.565332], [33.953711, -9.658203], [33.888867, -9.670117], [33.697656, -9.598145], [33.420898, -9.608008], [33.330859, -9.519141], [33.130469, -9.495898], [32.974023, -9.39502], [32.919922, -9.407422]]], [[[39.711328, -7.977441], [39.657227, -7.990527], [39.60293, -7.936133], [39.907129, -7.649219], [39.824414, -7.900684], [39.761816, -7.911914], [39.711328, -7.977441]]]]}, "properties": {"iso3": "TZA"}}, {"type": "Feature", "geometry": {"type": "MultiPolygon", "coordinates": [[[[29.129883, -22.213281], [29.663086, -22.146289], [29.902344, -22.18418], [30.19043, -22.291113], [30.460156, -22.329004], [30.916113, -22.290723], [31.073438, -22.307813], [31.287891, -22.402051], [31.531738, -23.279492], [31.545605, -23.482324], [31.799609, -23.892188], [31.966602, -24.376465], [31.98457, -25.631934], [31.920313, -25.773926], [31.948242, -25.957617], [31.871484, -25.981641], [31.415137, -25.746582], [31.335156, -25.755566], [31.207324, -25.843359], [30.80332, -26.413477], [30.806738, -26.785254], [30.883301, -26.792383], [31.063379, -27.112305], [31.274023, -27.238379], [31.469531, -27.295508], [31.742578, -27.309961], [31.958398, -27.305859], [31.946094, -27.173633], [31.994727, -26.81748], [32.353516, -26.861621], [32.886133, -26.849316], [32.849121, -27.080176], [32.657031, -27.607324], [32.534766, -28.199707], [32.375195, -28.498242], [32.285742, -28.621484], [32.027246, -28.839551], [31.778223, -28.937109], [31.335156, -29.378125], [31.169922, -29.59082], [31.02334, -29.900879], [30.877637, -30.071094], [30.288672, -30.970117], [29.971191, -31.32207], [29.48291, -31.674707], [28.855957, -32.294238], [27.860645, -33.053906], [27.077441, -33.521191], [26.613672, -33.707422], [26.429492, -33.75957], [25.989551, -33.711328], [25.805859, -33.737109], [25.652441, -33.849609], [25.638184, -34.011133], [25.574219, -34.035352], [25.169727, -33.960742], [25.00293, -33.973633], [24.827148, -34.168945], [24.595508, -34.174512], [24.183008, -34.061523], [23.697852, -33.992773], [23.585547, -33.985156], [23.268164, -34.081152], [22.553809, -34.010059], [22.245508, -34.069141], [21.788965, -34.372656], [21.349805, -34.408203], [20.989844, -34.36748], [20.774805, -34.439941], [20.529883, -34.463086], [20.020605, -34.785742], [19.634961, -34.75332], [19.391504, -34.605664], [19.298242, -34.615039], [19.330762, -34.492383], [19.244629, -34.412305], [19.149121, -34.416895], [19.09834, -34.350098], [18.831348, -34.364063], [18.808789, -34.108203], [18.752148, -34.082617], [18.605176, -34.077344], [18.500391, -34.109277], [18.462109, -34.168066], [18.461621, -34.346875], [18.352051, -34.188477], [18.333398, -34.074219], [18.354395, -33.939063], [18.465039, -33.887793], [18.433008, -33.717285], [18.26123, -33.42168], [18.156348, -33.358789], [18.074805, -33.207324], [17.992578, -33.152344], [17.958398, -33.046387], [17.878223, -32.961523], [17.851074, -32.827441], [17.895313, -32.750488], [17.965234, -32.708594], [18.036523, -32.775098], [18.125, -32.749121], [18.250879, -32.652148], [18.325293, -32.50498], [18.310742, -32.122461], [18.21084, -31.74248], [17.677441, -31.019043], [17.34707, -30.444824], [17.189063, -30.099805], [16.95, -29.403418], [16.739453, -29.009375], [16.447559, -28.617578], [16.626172, -28.487891], [16.755762, -28.452148], [16.875293, -28.12793], [16.933301, -28.069629], [17.05625, -28.031055], [17.149414, -28.082227], [17.20459, -28.198828], [17.358691, -28.269434], [17.385742, -28.353223], [17.347852, -28.501172], [17.447949, -28.698145], [17.976074, -28.811328], [18.102734, -28.87168], [18.83877, -28.869141], [19.161719, -28.93877], [19.245801, -28.90166], [19.282227, -28.847949], [19.270996, -28.777734], [19.48291, -28.661621], [19.539844, -28.574609], [19.671484, -28.503906], [19.980469, -28.45127], [19.980469, -24.776758], [20.345215, -25.029883], [20.430664, -25.14707], [20.793164, -25.915625], [20.815039, -26.164941], [20.626758, -26.443848], [20.641406, -26.742188], [20.685059, -26.822461], [20.739844, -26.848828], [20.870898, -26.808789], [21.070996, -26.851758], [21.694727, -26.840918], [21.788281, -26.710059], [22.090918, -26.580176], [22.217578, -26.388867], [22.597656, -26.132715], [22.878809, -25.45791], [22.95127, -25.370313], [23.05752, -25.312305], [23.266016, -25.266602], [23.389258, -25.291406], [23.670703, -25.433984], [23.89375, -25.600879], [24.192969, -25.63291], [24.330566, -25.742871], [24.748145, -25.817383], [24.869238, -25.813477], [24.998926, -25.754004], [25.213379, -25.75625], [25.443652, -25.714453], [25.583789, -25.60625], [25.912109, -24.747461], [26.397168, -24.613574], [26.617773, -24.395508], [26.835059, -24.24082], [26.987012, -23.70459], [27.085547, -23.57793], [27.313379, -23.424219], [27.49873, -23.368359], [27.643848, -23.217676], [27.758301, -23.196777], [27.768555, -23.148926], [27.931348, -23.033594], [27.935059, -22.987012], [28.02793, -22.87373], [28.210156, -22.693652], [28.381738, -22.593359], [28.839844, -22.480859], [28.945801, -22.395117], [29.013477, -22.278418], [29.129883, -22.213281]], [[28.736914, -30.101953], [29.098047, -29.919043], [29.142188, -29.700977], [29.293555, -29.566895], [29.390723, -29.269727], [29.301367, -29.089844], [28.953711, -28.881445], [28.625781, -28.581738], [28.232617, -28.70127], [27.959863, -28.87334], [27.735547, -28.940039], [27.294531, -29.519336], [27.056934, -29.625586], [27.130469, -29.840234], [27.355371, -30.158594], [27.349707, -30.247363], [27.388477, -30.315918], [27.491992, -30.363965], [27.753125, -30.6], [28.056836, -30.631055], [28.128711, -30.525098], [28.139063, -30.449902], [28.39209, -30.147559], [28.736914, -30.101953]]], [[[37.856934, -46.944238], [37.611816, -46.946484], [37.590039, -46.908008], [37.684863, -46.824023], [37.789551, -46.8375], [37.887695, -46.90166], [37.856934, -46.944238]]]]}, "properties": {"iso3": "ZAF"}}, {"type": "Feature", "geometry": {"type": "Polygon", "coordinates": [[[29.576953, -1.387891], [29.825391, -1.335547], [29.881641, -1.451758], [29.930078, -1.469922], [30.101562, -1.368652], [30.360254, -1.074609], [30.509961, -1.067285], [30.470215, -1.131152], [30.508105, -1.208203], [30.631934, -1.36748], [30.710742, -1.396777], [30.812598, -1.563086], [30.819141, -1.96748], [30.876563, -2.143359], [30.828711, -2.338477], [30.553613, -2.400098], [30.408496, -2.312988], [30.233789, -2.34707], [30.117285, -2.416602], [29.930176, -2.339551], [29.868164, -2.716406], [29.698047, -2.794727], [29.390234, -2.808594], [29.349805, -2.791504], [29.29707, -2.673047], [29.102051, -2.595703], [29.063184, -2.602539], [29.014355, -2.720215], [28.921777, -2.682031], [28.857617, -2.44668], [28.876367, -2.400293], [29.131543, -2.195117], [29.143262, -1.816016], [29.35166, -1.517578], [29.576953, -1.387891]]]}, "properties": {"iso3": "RWA"}}, {"type": "Feature", "geometry": {"type": "Polygon", "coordinates": [[[31.287891, -22.402051], [31.429492, -22.298828], [32.429785, -21.29707], [32.353613, -21.136523], [32.476172, -20.950098], [32.492383, -20.659766], [32.672559, -20.516113], [32.992773, -19.984863], [33.006738, -19.873828], [32.830762, -19.558203], [32.777637, -19.38877], [32.849805, -19.104395], [32.826172, -19.058789], [32.716504, -19.001855], [32.699707, -18.940918], [32.721973, -18.828418], [32.88457, -18.728516], [32.993066, -18.35957], [32.955566, -18.08291], [32.969336, -17.251563], [32.884375, -17.037793], [32.87627, -16.883594], [32.948047, -16.712305], [32.741797, -16.677637], [32.63584, -16.589453], [32.243262, -16.44873], [31.939844, -16.428809], [31.687598, -16.21416], [31.489844, -16.179688], [31.23623, -16.023633], [30.409375, -15.978223], [30.379883, -15.505859], [30.350586, -15.349707], [30.252148, -15.183203], [30.231836, -14.990332], [30.67334, -14.819141], [31.537891, -14.577148], [33.201758, -14.013379], [33.389941, -14.289453], [33.636426, -14.568164], [33.696094, -14.530273], [34.049414, -14.485254], [34.208789, -14.42373], [34.375, -14.424805], [34.505273, -14.598145], [34.555469, -15.140918], [34.54082, -15.297266], [34.434961, -15.477148], [34.358008, -15.705273], [34.246094, -15.829395], [34.248242, -15.8875], [34.403027, -16.080273], [34.416406, -16.246777], [34.528125, -16.319141], [34.933398, -16.760352], [35.079883, -16.833887], [35.112109, -16.898535], [35.094238, -16.973828], [35.043945, -17.016895], [35.064648, -17.078613], [35.124609, -17.127246], [35.272559, -17.118457], [35.281152, -16.807813], [35.229785, -16.639258], [35.167188, -16.560254], [35.291504, -16.247168], [35.358496, -16.160547], [35.599316, -16.125879], [35.755273, -16.058301], [35.819922, -15.680371], [35.805371, -15.265625], [35.892773, -14.891797], [35.847168, -14.670898], [35.247461, -13.896875], [34.906836, -13.55166], [34.850488, -13.516016], [34.661621, -13.486719], [34.563672, -13.360156], [34.48291, -12.666797], [34.357813, -12.164746], [34.553906, -11.834082], [34.618555, -11.620215], [34.65957, -11.588672], [34.826563, -11.575684], [35.564355, -11.602344], [35.630957, -11.582031], [35.785449, -11.45293], [35.911328, -11.454688], [36.082227, -11.537305], [36.175488, -11.609277], [36.191309, -11.670703], [36.305664, -11.706348], [36.518652, -11.716211], [36.673828, -11.684277], [36.872656, -11.571289], [36.978906, -11.566992], [37.218359, -11.686523], [37.372852, -11.710449], [37.541699, -11.675098], [37.724805, -11.580664], [37.829297, -11.481934], [37.885352, -11.316699], [37.920215, -11.294727], [38.176563, -11.278711], [38.315137, -11.311133], [38.491797, -11.413281], [38.794727, -11.228906], [38.9875, -11.167285], [39.170996, -11.166895], [39.321582, -11.122559], [39.43916, -11.03457], [39.81709, -10.912402], [39.988672, -10.820801], [40.463574, -10.464355], [40.611719, -10.661523], [40.486621, -10.765137], [40.597168, -10.830664], [40.516113, -10.92959], [40.50625, -10.998438], [40.544531, -11.065625], [40.402832, -11.332031], [40.465137, -11.449414], [40.433105, -11.657324], [40.531543, -12.00459], [40.501465, -12.119434], [40.523145, -12.392773], [40.487109, -12.492188], [40.54834, -12.526563], [40.580859, -12.635547], [40.55332, -12.824609], [40.447656, -12.904785], [40.436816, -12.983105], [40.56875, -12.984668], [40.551953, -13.29375], [40.58291, -13.374023], [40.545117, -13.462891], [40.595703, -14.122852], [40.602539, -14.167383], [40.715625, -14.214453], [40.713086, -14.290625], [40.639941, -14.390039], [40.646094, -14.538672], [40.72666, -14.420703], [40.775, -14.421289], [40.818164, -14.467578], [40.844531, -14.718652], [40.835156, -14.791504], [40.700684, -14.929785], [40.694336, -15.065234], [40.617773, -15.115527], [40.650977, -15.260938], [40.558984, -15.473438], [40.108789, -15.979297], [40.099219, -16.065332], [39.983594, -16.225488], [39.790918, -16.294531], [39.844629, -16.435645], [39.242285, -16.792578], [39.084375, -16.972852], [38.884766, -17.041602], [38.669922, -17.050293], [38.144922, -17.242773], [38.048242, -17.321387], [37.839453, -17.393164], [37.512305, -17.570703], [37.244531, -17.739941], [36.939355, -17.993457], [36.899609, -18.129004], [36.540137, -18.518164], [36.412207, -18.692969], [36.403711, -18.769727], [36.327246, -18.793164], [36.262891, -18.719629], [36.235645, -18.861328], [36.125, -18.842383], [35.853711, -18.993359], [35.65127, -19.163867], [35.365332, -19.493945], [34.947852, -19.812695], [34.852344, -19.820508], [34.720996, -19.70957], [34.649414, -19.701367], [34.755762, -19.821973], [34.705078, -20.473047], [34.982324, -20.80625], [35.117578, -21.195215], [35.128027, -21.395313], [35.267676, -21.650977], [35.329297, -22.037402], [35.315723, -22.396875], [35.383008, -22.45459], [35.418848, -22.177637], [35.456348, -22.115918], [35.49375, -22.124707], [35.530078, -22.248145], [35.541992, -22.376563], [35.490234, -22.657715], [35.575391, -22.963086], [35.494434, -23.185156], [35.37041, -23.798242], [35.462109, -23.851074], [35.485352, -23.784473], [35.522461, -23.784961], [35.541992, -23.824414], [35.489648, -24.065527], [35.254883, -24.430273], [35.155957, -24.541406], [34.99209, -24.650586], [34.607324, -24.821289], [33.836035, -25.067969], [33.347461, -25.260938], [32.961133, -25.49043], [32.792188, -25.644336], [32.722559, -25.820898], [32.59043, -26.004102], [32.703516, -26.158496], [32.848828, -26.268066], [32.916406, -26.086914], [32.954883, -26.083594], [32.886133, -26.849316], [32.112891, -26.839453], [32.105957, -26.52002], [32.041406, -26.28125], [32.060547, -26.018359], [31.948242, -25.957617], [31.920313, -25.773926], [31.98457, -25.631934], [31.98584, -24.460645], [31.799609, -23.892188], [31.545605, -23.482324], [31.531738, -23.279492], [31.287891, -22.402051]], [[34.641602, -12.013672], [34.591406, -11.971094], [34.541602, -12.018652], [34.580469, -12.06582], [34.621777, -12.066602], [34.641602, -12.013672]], [[34.719336, -12.110645], [34.755957, -12.030762], [34.679883, -12.008887], [34.662109, -12.100781], [34.719336, -12.110645]]]}, "properties": {"iso3": "MOZ"}}, {"type": "Feature", "geometry": {"type": "MultiPolygon", "coordinates": [[[[34.719336, -12.110645], [34.662109, -12.100781], [34.679883, -12.008887], [34.755957, -12.030762], [34.719336, -12.110645]]], [[[34.641602, -12.013672], [34.621777, -12.066602], [34.580469, -12.06582], [34.541602, -12.018652], [34.591406, -11.971094], [34.641602, -12.013672]]], [[[33.389941, -14.289453], [33.148047, -13.940918], [32.99209, -14.022168], [32.867188, -13.817383], [32.765137, -13.761035], [32.797461, -13.688477], [32.67041, -13.59043], [32.851855, -13.457031], [32.967578, -13.225], [33.0, -12.899609], [32.945605, -12.804395], [33.021582, -12.630469], [33.397949, -12.489844], [33.512305, -12.347754], [33.340137, -12.308301], [33.252344, -12.112598], [33.300977, -11.888184], [33.303906, -11.69082], [33.288281, -11.611133], [33.226367, -11.534863], [33.232715, -11.417676], [33.268359, -11.403906], [33.379785, -11.15791], [33.261328, -10.893359], [33.344922, -10.812695], [33.464746, -10.783105], [33.659082, -10.590527], [33.661523, -10.553125], [33.553711, -10.391309], [33.528906, -10.234668], [33.311523, -10.037988], [33.350977, -9.862207], [33.25, -9.75957], [33.195703, -9.626172], [33.104492, -9.602637], [33.072461, -9.638184], [32.995996, -9.622852], [32.919922, -9.407422], [32.974023, -9.39502], [33.130469, -9.495898], [33.330859, -9.519141], [33.420898, -9.608008], [33.697656, -9.598145], [33.888867, -9.670117], [33.953711, -9.658203], [33.949609, -9.565332], [33.995605, -9.49541], [34.088574, -9.537793], [34.320898, -9.731543], [34.524219, -10.030176], [34.57998, -10.319824], [34.583594, -10.525098], [34.661816, -10.710059], [34.60791, -11.080469], [34.773828, -11.341699], [34.850586, -11.351953], [34.890625, -11.393555], [34.959473, -11.578125], [34.65957, -11.588672], [34.618555, -11.620215], [34.553906, -11.834082], [34.357813, -12.164746], [34.48291, -12.666797], [34.563672, -13.360156], [34.661621, -13.486719], [34.850488, -13.516016], [34.906836, -13.55166], [35.247461, -13.896875], [35.847168, -14.670898], [35.892773, -14.891797], [35.805371, -15.265625], [35.819922, -15.680371], [35.755273, -16.058301], [35.599316, -16.125879], [35.358496, -16.160547], [35.291504, -16.247168], [35.167188, -16.560254], [35.229785, -16.639258], [35.281152, -16.807813], [35.272559, -17.118457], [35.124609, -17.127246], [35.064648, -17.078613], [35.043945, -17.016895], [35.094238, -16.973828], [35.112109, -16.898535], [35.079883, -16.833887], [34.933398, -16.760352], [34.528125, -16.319141], [34.416406, -16.246777], [34.403027, -16.080273], [34.248242, -15.8875], [34.246094, -15.829395], [34.358008, -15.705273], [34.434961, -15.477148], [34.54082, -15.297266], [34.557617, -15.015918], [34.505273, -14.598145], [34.375, -14.424805], [34.33252, -14.408594], [34.101855, -14.449316], [34.049414, -14.485254], [33.696094, -14.530273], [33.636426, -14.568164], [33.389941, -14.289453]]]]}, "properties": {"iso3": "MWI"}}, {"type": "Feature", "geometry": {"type": "MultiPolygon", "coordinates": [[[[49.538281, -12.432129], [49.637793, -12.637109], [49.9375, -13.072266], [50.173828, -14.040234], [50.235352, -14.732031], [50.313477, -14.936816], [50.441309, -15.149316], [50.482715, -15.385645], [50.40459, -15.629102], [50.291504, -15.858496], [50.184961, -15.957813], [50.02041, -15.801758], [49.892578, -15.457715], [49.74375, -15.449512], [49.664355, -15.521582], [49.712793, -16.076758], [49.831055, -16.255859], [49.839063, -16.486523], [49.811328, -16.603027], [49.733984, -16.703027], [49.767188, -16.815137], [49.595215, -16.931152], [49.449316, -17.240625], [49.437109, -17.34668], [49.493652, -17.669531], [49.477832, -17.898535], [49.362891, -18.336328], [48.918066, -19.530469], [48.468555, -20.9], [48.350781, -21.349023], [47.908398, -22.46582], [47.804102, -22.991504], [47.604102, -23.633105], [47.558008, -23.874609], [47.372559, -24.218457], [47.177344, -24.787207], [47.034961, -24.979004], [46.728516, -25.149902], [46.386719, -25.172754], [46.158691, -25.230371], [45.508008, -25.563184], [45.205762, -25.570508], [45.115234, -25.543066], [44.812891, -25.33418], [44.345898, -25.226074], [44.256152, -25.116895], [44.035352, -24.995703], [43.90957, -24.640625], [43.67002, -24.300293], [43.646094, -23.741895], [43.664746, -23.630273], [43.722266, -23.529688], [43.569531, -23.080469], [43.397852, -22.886328], [43.35752, -22.79082], [43.264844, -22.383594], [43.290527, -21.93252], [43.437793, -21.64668], [43.501855, -21.356445], [43.800195, -21.179199], [43.911133, -20.86582], [44.239648, -20.379688], [44.348145, -20.145508], [44.404688, -19.92207], [44.448828, -19.428711], [44.23877, -19.075195], [44.233105, -18.740625], [44.108789, -18.503516], [44.040039, -18.288477], [44.013672, -17.804492], [43.943555, -17.581445], [43.979395, -17.391602], [44.421387, -16.702637], [44.427051, -16.289062], [44.476172, -16.217285], [44.90918, -16.174512], [45.222852, -15.950488], [45.342188, -16.036719], [45.486328, -15.98584], [45.598242, -15.992578], [45.661523, -15.838867], [45.700195, -15.81377], [46.15752, -15.738281], [46.314063, -15.90459], [46.399609, -15.924609], [46.441602, -15.895898], [46.341309, -15.813379], [46.331445, -15.713672], [46.385156, -15.600098], [46.475098, -15.513477], [46.882031, -15.22959], [46.942285, -15.219043], [46.993262, -15.243164], [47.027441, -15.452246], [47.099219, -15.43418], [47.135156, -15.301563], [47.092578, -15.150098], [47.280469, -14.942676], [47.351953, -14.766113], [47.464746, -14.713281], [47.496387, -14.818359], [47.429199, -14.995703], [47.47832, -15.009375], [47.524707, -14.992188], [47.67002, -14.743262], [47.774023, -14.636719], [47.96416, -14.672559], [47.811523, -14.544824], [47.77334, -14.369922], [47.995508, -13.960449], [47.883594, -13.80752], [47.941016, -13.662402], [48.039844, -13.596289], [48.187109, -13.706543], [48.255273, -13.719336], [48.405078, -13.537988], [48.621387, -13.425977], [48.796484, -13.26748], [48.919434, -12.839063], [48.786328, -12.470898], [48.803906, -12.440039], [48.931738, -12.439063], [49.207031, -12.07959], [49.263477, -12.080176], [49.312109, -12.123926], [49.363965, -12.236328], [49.538281, -12.432129]]], [[[48.308887, -13.198242], [48.343555, -13.400391], [48.211914, -13.385254], [48.191211, -13.259961], [48.255664, -13.256055], [48.269727, -13.20459], [48.308887, -13.198242]]], [[[50.023047, -16.695312], [49.824023, -17.086523], [49.855664, -16.933203], [49.985938, -16.712402], [50.023047, -16.695312]]]]}, "properties": {"iso3": "MDG"}}, {"type": "Feature", "geometry": {"type": "MultiPolygon", "coordinates": [[[[41.118164, -2.100098], [40.957324, -2.167285], [40.976465, -2.109766], [41.086035, -2.036523], [41.130664, -2.053027], [41.118164, -2.100098]]], [[[33.903223, -1.002051], [33.943164, 0.173779], [34.037207, 0.294531], [34.160938, 0.605176], [34.272559, 0.686426], [34.41084, 0.867285], [34.481738, 1.042139], [34.601953, 1.156445], [34.798633, 1.244531], [34.783594, 1.381152], [34.965234, 1.643359], [34.978223, 1.773633], [34.964063, 2.062402], [34.883008, 2.41792], [34.905762, 2.479687], [34.866211, 2.589697], [34.814453, 2.619824], [34.74248, 2.818115], [34.58916, 2.924756], [34.522559, 3.119971], [34.447852, 3.163477], [34.399414, 3.412695], [34.437695, 3.650586], [34.165039, 3.812988], [34.185742, 3.869775], [34.132031, 3.88916], [33.976074, 4.220215], [35.268359, 5.492285], [35.264648, 5.412061], [35.325293, 5.364893], [35.468652, 5.419092], [35.74502, 5.343994], [35.791406, 5.278564], [35.800293, 5.156934], [35.756152, 4.950488], [35.763086, 4.808008], [36.021973, 4.468115], [36.905566, 4.411475], [38.086133, 3.648828], [38.608008, 3.600098], [38.967773, 3.520605], [39.494434, 3.456104], [39.65752, 3.577832], [39.842188, 3.851465], [40.765234, 4.273047], [41.14043, 3.962988], [41.318945, 3.943066], [41.883984, 3.977734], [41.341797, 3.20166], [40.964453, 2.814648], [40.978711, -0.870313], [41.521875, -1.572266], [41.532715, -1.695312], [41.386914, -1.866992], [41.26748, -1.94502], [41.106836, -1.982324], [40.995508, -1.950586], [40.952148, -2.055957], [40.889746, -2.023535], [40.922363, -2.19375], [40.898242, -2.269922], [40.820117, -2.336328], [40.813184, -2.392383], [40.644141, -2.539453], [40.404492, -2.555664], [40.222461, -2.688379], [40.179785, -2.819043], [40.194727, -3.019238], [40.11543, -3.250586], [39.991699, -3.350684], [39.860938, -3.576758], [39.819141, -3.786035], [39.731641, -3.993262], [39.490918, -4.478418], [39.376953, -4.625488], [39.2875, -4.608594], [39.221777, -4.692383], [39.190137, -4.677246], [37.797266, -3.674414], [37.711035, -3.54082], [37.608203, -3.49707], [37.687988, -3.246191], [37.643848, -3.04541], [34.051563, -1.039844], [33.903223, -1.002051]]]]}, "properties": {"iso3": "KEN"}}, {"type": "Feature", "geometry": {"type": "Polygon", "coordinates": [[[35.268359, 5.492285], [35.081934, 5.673145], [34.983594, 5.858301], [34.958984, 6.045068], [34.710645, 6.660303], [34.562793, 6.779834], [34.484375, 6.898389], [34.279297, 7.002832], [34.064258, 7.225732], [34.02041, 7.367969], [33.902441, 7.509521], [33.666113, 7.670996], [33.225977, 7.760645], [33.080762, 7.82373], [33.014648, 7.868555], [33.012598, 7.951514], [33.234277, 8.396387], [33.281055, 8.437256], [33.95332, 8.443506], [34.094531, 8.582227], [34.079297, 9.513477], [34.159082, 9.853418], [34.31123, 10.190869], [34.275684, 10.528125], [34.431445, 10.787842], [34.571875, 10.880176], [34.771289, 10.746191], [34.931445, 10.864795], [34.960742, 11.276758], [35.112305, 11.816553], [35.252441, 11.957031], [35.670215, 12.62373], [35.820605, 12.684863], [36.10752, 12.726465], [36.160156, 13.093311], [36.212207, 13.271094], [36.390625, 13.626074], [36.44707, 13.842041], [36.443945, 13.988428], [36.524316, 14.256836], [36.811914, 14.315039], [37.024512, 14.271973], [37.132617, 14.406055], [37.257227, 14.45376], [37.353711, 14.372461], [37.507227, 14.156396], [37.571191, 14.149072], [37.88418, 14.852295], [38.002539, 14.737109], [38.221484, 14.649658], [38.431445, 14.428613], [38.812012, 14.482324], [39.023828, 14.628223], [39.074219, 14.628223], [39.198047, 14.479395], [39.270117, 14.470312], [39.531836, 14.536719], [39.756152, 14.499023], [39.895117, 14.440674], [40.140625, 14.456055], [40.221484, 14.431152], [40.524414, 14.225195], [40.820117, 14.11167], [41.122363, 13.736133], [41.362891, 13.499805], [41.765039, 13.183936], [41.952148, 12.882324], [42.134277, 12.771436], [42.378516, 12.466406], [41.995898, 11.912354], [41.792676, 11.686035], [41.764648, 11.412891], [41.798242, 10.980469], [41.957422, 10.941016], [42.557715, 11.080762], [42.65498, 11.07832], [42.783008, 11.009277], [42.922754, 10.999316], [42.656445, 10.6], [42.841602, 10.203076], [43.068945, 9.926221], [43.181641, 9.87998], [43.303125, 9.609082], [43.48252, 9.379492], [43.620508, 9.337402], [43.983789, 9.008838], [46.978223, 7.99707], [47.978223, 7.99707], [46.422949, 6.497266], [44.940527, 4.912012], [43.988867, 4.950537], [43.583496, 4.85498], [43.125684, 4.644482], [43.016016, 4.56333], [42.856641, 4.324219], [42.024121, 4.137939], [41.883984, 3.977734], [41.318945, 3.943066], [41.14043, 3.962988], [40.765234, 4.273047], [39.842188, 3.851465], [39.65752, 3.577832], [39.494434, 3.456104], [38.967773, 3.520605], [38.608008, 3.600098], [38.086133, 3.648828], [36.905566, 4.411475], [36.021973, 4.468115], [35.763086, 4.808008], [35.756152, 4.950488], [35.800293, 5.156934], [35.791406, 5.278564], [35.74502, 5.343994], [35.468652, 5.419092], [35.325293, 5.364893], [35.264648, 5.412061], [35.268359, 5.492285]]]}, "properties": {"iso3": "ETH"}}]}